NORAD_CAT_ID,OBJECT_NAME,OBJECT_TYPE,EPOCH,MEAN_MOTION,ECCENTRICITY,INCLINATION,RA_OF_ASC_NODE,ARG_OF_PERICENTER,MEAN_ANOMALY,BSTAR,MEAN_MOTION_DOT,MEAN_MOTION_DDOT,TLE_LINE0,TLE_LINE1,TLE_LINE2,SEMIMAJOR_AXIS,PERIOD,APOGEE,PERIGEE,DECAYED
53272.0,STARLINK-4122,PAYLOAD,2023-04-25 11:18:57,15.08815098,0.0001172,53.216,214.2452,93.7731,266.3395,-0.00028571,-4.829e-05,0.0,0 STARLINK-4122,1 53272U 22086AG  23115.47149484 -.00004829  00000-0 -28571-3 0  9991,2 53272  53.2160 214.2452 0001172  93.7731 266.3395 15.08815098 42802,6917.957,95.439,540.632,539.011,0.0
53272.0,STARLINK-4122,PAYLOAD,2023-04-26 00:02:02,15.08824128,0.0001245,53.2143,211.8642,107.1867,252.9262,-0.00025355,-4.319e-05,0.0,0 STARLINK-4122,1 53272U 22086AG  23116.00141428 -.00004319  00000-0 -25355-3 0  9992,2 53272  53.2143 211.8642 0001245 107.1867 252.9262 15.08824128 42705,6917.929,95.439,540.655,538.933,0.0
53272.0,STARLINK-4122,PAYLOAD,2023-04-26 11:09:43,15.08839444,0.0001153,53.2165,209.7831,103.5328,256.5793,-0.00015474,-2.75e-05,0.0,0 STARLINK-4122,1 53272U 22086AG  23116.46508835 -.00002750  00000-0 -15474-3 0  9999,2 53272  53.2165 209.7831 0001153 103.5328 256.5793 15.08839444 42958,6917.882,95.438,540.545,538.949,0.0
53272.0,STARLINK-4122,PAYLOAD,2023-04-27 11:00:31,15.088331,0.0001078,53.2156,205.3219,119.0883,241.0217,0.00047629,7.299e-05,0.0,0 STARLINK-4122,1 53272U 22086AG  23117.45870007  .00007299  00000-0  47629-3 0  9990,2 53272  53.2156 205.3219 0001078 119.0883 241.0217 15.08833100 43105,6917.901,95.438,540.512,539.021,0.0
53272.0,STARLINK-4122,PAYLOAD,2023-04-28 06:05:08,15.08846539,9.7e-05,53.2155,201.7541,111.3469,248.7627,0.00026132,3.874e-05,0.0,0 STARLINK-4122,1 53272U 22086AG  23118.25357380  .00003874  00000-0  26132-3 0  9994,2 53272  53.2155 201.7541 0000970 111.3469 248.7627 15.08846539 43049,6917.86,95.437,540.396,539.054,0.0
53272.0,STARLINK-4122,PAYLOAD,2023-04-28 12:26:41,15.0885303,8.8e-05,53.2154,200.5661,96.8772,263.2321,0.00031992,4.809e-05,0.0,0 STARLINK-4122,1 53272U 22086AG  23118.51853115  .00004809  00000-0  31992-3 0  9999,2 53272  53.2154 200.5661 0000880  96.8772 263.2321 15.08853030 43263,6917.841,95.437,540.314,539.097,0.0
53272.0,STARLINK-4122,PAYLOAD,2023-04-28 21:59:00,15.08843256,0.0001154,53.2159,198.7802,90.8868,269.2256,5.505e-05,5.88e-06,0.0,0 STARLINK-4122,1 53272U 22086AG  23118.91597377  .00000588  00000-0  55050-4 0  9990,2 53272  53.2159 198.7802 0001154  90.8868 269.2256 15.08843256 43147,6917.87,95.437,540.534,538.937,0.0
53272.0,STARLINK-4122,PAYLOAD,2023-04-29 10:42:05,15.08839009,0.0001131,53.2158,196.4018,99.6659,260.4461,-6.2944e-05,-1.289e-05,0.0,0 STARLINK-4122,1 53272U 22086AG  23119.44589405 -.00001289  00000-0 -62944-4 0  9993,2 53272  53.2158 196.4018 0001131  99.6659 260.4461 15.08839009 43401,6917.883,95.438,540.531,538.966,0.0
53272.0,STARLINK-4122,PAYLOAD,2023-04-30 13:43:38,15.08841174,0.0001251,53.2167,191.3437,91.7098,268.4037,9.0357e-05,1.15e-05,0.0,0 STARLINK-4122,1 53272U 22086AG  23120.57197459  .00001150  00000-0  90357-4 0  9997,2 53272  53.2167 191.3437 0001251  91.7098 268.4037 15.08841174 43394,6917.877,95.437,540.607,538.876,0.0
53272.0,STARLINK-4122,PAYLOAD,2023-05-01 11:59:02,15.08838221,0.0001043,53.2152,187.1814,96.6966,263.4145,2.2153e-05,6.5e-07,0.0,0 STARLINK-4122,1 53272U 22086AG  23121.49933836  .00000065  00000-0  22153-4 0  9999,2 53272  53.2152 187.1814 0001043  96.6966 263.4145 15.08838221 43537,6917.886,95.438,540.472,539.029,0.0
53272.0,STARLINK-4122,PAYLOAD,2023-05-02 11:49:49,15.0884859,0.0001106,53.2153,182.723,82.2268,277.885,0.00019305,2.787e-05,0.0,0 STARLINK-4122,1 53272U 22086AG  23122.49293498  .00002787  00000-0  19305-3 0  9990,2 53272  53.2153 182.7230 0001106  82.2268 277.8850 15.08848590 43865,6917.854,95.437,540.484,538.954,0.0
53272.0,STARLINK-4122,PAYLOAD,2023-05-02 22:57:31,15.08841484,0.0001157,53.2151,180.6411,86.646,273.4664,9.6221e-05,1.244e-05,0.0,0 STARLINK-4122,1 53272U 22086AG  23122.95661825  .00001244  00000-0  96221-4 0  9994,2 53272  53.2151 180.6411 0001157  86.6460 273.4664 15.08841484 43757,6917.876,95.437,540.541,538.94,0.0
53272.0,STARLINK-4122,PAYLOAD,2023-05-03 10:05:14,15.08832423,0.0001177,53.2154,178.5592,80.012,280.1005,5.9882e-05,6.65e-06,0.0,0 STARLINK-4122,1 53272U 22086AG  23123.42030724  .00000665  00000-0  59882-4 0  9993,2 53272  53.2154 178.5592 0001177  80.0120 280.1005 15.08832423 43824,6917.904,95.438,540.583,538.954,0.0
53272.0,STARLINK-4122,PAYLOAD,2023-05-04 01:59:05,15.08847459,0.0001189,53.215,175.5845,79.876,280.2366,-4.1324e-06,-3.54e-06,0.0,0 STARLINK-4122,1 53272U 22086AG  23124.08270013 -.00000354  00000-0 -41324-5 0  9993,2 53272  53.2150 175.5845 0001189  79.8760 280.2366 15.08847459 43924,6917.858,95.437,540.545,538.9,0.0
53272.0,STARLINK-4122,PAYLOAD,2023-05-04 13:06:46,15.08848756,0.0001147,53.2158,173.5038,75.6537,284.4582,9.2414e-05,1.184e-05,0.0,0 STARLINK-4122,1 53272U 22086AG  23124.54637433  .00001184  00000-0  92414-4 0  9992,2 53272  53.2158 173.5038 0001147  75.6537 284.4582 15.08848756 44179,6917.854,95.437,540.512,538.925,0.0
53272.0,STARLINK-4122,PAYLOAD,2023-05-05 08:11:24,15.08838307,0.0001089,53.2153,169.9344,72.3008,287.8103,0.00013595,1.876e-05,0.0,0 STARLINK-4122,1 53272U 22086AG  23125.34126048  .00001876  00000-0  13595-3 0  9996,2 53272  53.2153 169.9344 0001089  72.3008 287.8103 15.08838307 44116,6917.886,95.438,540.504,538.997,0.0
53272.0,STARLINK-4122,PAYLOAD,2023-05-05 19:19:07,15.0883863,0.0001163,53.2159,167.853,75.7608,284.3513,7.4561e-05,8.99e-06,0.0,0 STARLINK-4122,1 53272U 22086AG  23125.80494247  .00000899  00000-0  74561-4 0  9991,2 53272  53.2159 167.8530 0001163  75.7608 284.3513 15.08838630 44365,6917.885,95.438,540.554,538.945,0.0
53272.0,STARLINK-4122,PAYLOAD,2023-05-06 08:02:12,15.08839997,0.0001225,53.2157,165.4749,76.0974,284.0155,1.3306e-05,-7.6e-07,0.0,0 STARLINK-4122,1 53272U 22086AG  23126.33486398 -.00000076  00000-0  13306-4 0  9996,2 53272  53.2157 165.4749 0001225  76.0974 284.0155 15.08839997 44443,6917.88,95.438,540.593,538.898,0.0
53272.0,STARLINK-4122,PAYLOAD,2023-05-06 23:56:03,15.08841396,0.000116,53.2158,162.502,84.7458,275.3667,8.2364e-05,1.023e-05,0.0,0 STARLINK-4122,1 53272U 22086AG  23126.99726046  .00001023  00000-0  82364-4 0  9997,2 53272  53.2158 162.5020 0001160  84.7458 275.3667 15.08841396 44363,6917.876,95.437,540.544,538.939,0.0
53272.0,STARLINK-4122,PAYLOAD,2023-05-07 09:28:21,15.08844717,0.0001156,53.2159,160.7179,86.5198,273.5926,0.00010408,1.369e-05,0.0,0 STARLINK-4122,1 53272U 22086AG  23127.39469783  .00001369  00000-0  10408-3 0  9996,2 53272  53.2159 160.7179 0001156  86.5198 273.5926 15.08844717 44600,6917.866,95.437,540.531,538.931,0.0
53272.0,STARLINK-4122,PAYLOAD,2023-05-07 19:00:41,15.08836568,0.0001151,53.2159,158.9336,88.4273,271.6851,6.1898e-05,6.97e-06,0.0,0 STARLINK-4122,1 53272U 22086AG  23127.79214428  .00000697  00000-0  61898-4 0  9997,2 53272  53.2159 158.9336 0001151  88.4273 271.6851 15.08836568 44481,6917.891,95.438,540.552,538.96,0.0
53272.0,STARLINK-4122,PAYLOAD,2023-05-08 01:22:14,15.08830151,0.0001198,53.2159,157.7446,85.6334,274.4795,7.7185e-06,-1.65e-06,0.0,0 STARLINK-4122,1 53272U 22086AG  23128.05711106 -.00000165  00000-0  77185-5 0  9990,2 53272  53.2159 157.7446 0001198  85.6334 274.4795 15.08830151 44523,6917.91,95.438,540.604,538.947,0.0
53272.0,STARLINK-4122,PAYLOAD,2023-05-08 09:19:10,15.08829554,0.0001204,53.2161,156.2581,87.4967,272.6163,1.177e-05,-1.01e-06,0.0,0 STARLINK-4122,1 53272U 22086AG  23128.38831308 -.00000101  00000-0  11770-4 0  9990,2 53272  53.2161 156.2581 0001204  87.4967 272.6163 15.08829554 44759,6917.912,95.438,540.61,538.944,0.0
53272.0,STARLINK-4122,PAYLOAD,2023-05-09 09:09:55,15.08852379,0.000125,53.2162,151.7986,93.2289,266.8846,0.0001356,1.872e-05,0.0,0 STARLINK-4122,1 53272U 22086AG  23129.38189374  .00001872  00000-0  13560-3 0  9993,2 53272  53.2162 151.7986 0001250  93.2289 266.8846 15.08852379 44903,6917.843,95.437,540.572,538.843,0.0
53272.0,STARLINK-4122,PAYLOAD,2023-05-10 07:25:21,15.08830677,0.0001212,53.2162,147.631,94.6949,265.4182,6.0856e-05,6.81e-06,0.0,0 STARLINK-4122,1 53272U 22086AG  23130.30927331  .00000681  00000-0  60856-4 0  9998,2 53272  53.2162 147.6310 0001212  94.6949 265.4182 15.08830677 45045,6917.909,95.438,540.612,538.935,0.0
53272.0,STARLINK-4122,PAYLOAD,2023-05-10 18:33:03,15.08835676,0.0001198,53.2165,145.5497,94.4779,265.635,6.2459e-05,7.06e-06,0.0,0 STARLINK-4122,1 53272U 22086AG  23130.77295163  .00000706  00000-0  62459-4 0  9999,2 53272  53.2165 145.5497 0001198  94.4779 265.6350 15.08835676 45114,6917.894,95.438,540.587,538.93,0.0
53272.0,STARLINK-4122,PAYLOAD,2023-05-11 07:16:07,15.0884838,0.0001394,53.2163,143.1706,91.5933,268.5219,4.8991e-07,-2.8e-06,0.0,0 STARLINK-4122,1 53272U 22086AG  23131.30286437 -.00000280  00000-0  48991-6 0  9998,2 53272  53.2163 143.1706 0001394  91.5933 268.5219 15.08848380 45018,6917.855,95.437,540.684,538.755,0.0
53272.0,STARLINK-4122,PAYLOAD,2023-05-11 19:59:12,15.08840885,0.0001322,53.2157,140.7918,85.626,274.4883,9.4092e-05,1.21e-05,0.0,0 STARLINK-4122,1 53272U 22086AG  23131.83278633  .00001210  00000-0  94092-4 0  9999,2 53272  53.2157 140.7918 0001322  85.6260 274.4883 15.08840885 45270,6917.878,95.437,540.657,538.828,0.0
53272.0,STARLINK-4122,PAYLOAD,2023-05-12 03:56:08,15.08835999,0.0001299,53.2156,139.3067,78.1642,281.9495,0.00015149,2.124e-05,0.0,0 STARLINK-4122,1 53272U 22086AG  23132.16398979  .00002124  00000-0  15149-3 0  9992,2 53272  53.2156 139.3067 0001299  78.1642 281.9495 15.08835999 45320,6917.893,95.438,540.656,538.859,0.0
53272.0,STARLINK-4122,PAYLOAD,2023-05-12 07:06:54,15.08838303,0.0001341,53.2155,138.7127,73.5926,286.5213,0.00015947,2.251e-05,0.0,0 STARLINK-4122,1 53272U 22086AG  23132.29646923  .00002251  00000-0  15947-3 0  9998,2 53272  53.2155 138.7127 0001341  73.5926 286.5213 15.08838303 45344,6917.886,95.438,540.678,538.823,0.0
